#aV2020  3 15  0  0  0.00000000     288 DD+AD WGS84 FIT  NGA
## 2097      0.00000000   300.00000000 58923 0.0000000000000
+   32     1  2  3  4  5  6  7  8  9 10 11 12 13 14 15 16 17
+         18 19 20 21 22 23 24 25 26 27 28 29 30 31 32  0  0
+          0  0  0  0  0  0  0  0  0  0  0  0  0  0  0  0  0
+          0  0  0  0  0  0  0  0  0  0  0  0  0  0  0  0  0
+          0  0  0  0  0  0  0  0  0  0  0  0  0  0  0  0  0
++         2  2  2  2  2  2  2  2  2  2  2  2  2  2  2  2  2
++         2  2  2  2  2  2  2  2  2  2  2  2  2  2  2  0  0
++         0  0  0  0  0  0  0  0  0  0  0  0  0  0  0  0  0
++         0  0  0  0  0  0  0  0  0  0  0  0  0  0  0  0  0
++         0  0  0  0  0  0  0  0  0  0  0  0  0  0  0  0  0
%c cc cc ccc ccc cccc cccc cccc cccc ccccc ccccc ccccc ccccc
%c cc cc ccc ccc cccc cccc cccc cccc ccccc ccccc ccccc ccccc
%f  0.0000000  0.000000000  0.00000000000  0.000000000000000
%f  0.0000000  0.000000000  0.00000000000  0.000000000000000
%i    0    0    0    0      0      0      0      0         0
%i    0    0    0    0      0      0      0      0         0
/*      NGA, ST. LOUIS,MO.                                  
/*   EPHEMERIS COMPUTED FROM 2 DAYS OF DATA                 
/*   EPOCHA v5 SMOOTHER                                     
/*   G1762 IERS2010 SATAF SATAPC                            
*  2020  3 15  9 30  0.00000000
P  1 -14001.043336  17977.255525  13150.790561   -326.469420                    
V  1   2449.924071 -17092.403948  25892.258055     -0.124559                    
P  2  14264.656409   4873.015186 -21233.824852   -422.194394                    
V  2  -5571.333628  27950.620566   2523.520329     -0.066881                    
P  3 -20600.657242  13088.212754 -10410.470730   -118.430308                    
V  3 -13339.192963   1122.760514  28050.992369     -0.098622                    
P  4 -10706.233220  10826.672829 -21753.833787    -62.496911                    
V  4 -19061.944927 -20021.486747   -608.461183     -0.052814                    
P  5  24959.624115   -579.735929  -9476.084372     -9.144115                    
V  5 -10518.285574   5947.519367 -28276.019248     -0.006272                    
P  6   8721.998545  16571.845496 -18763.770742   -231.338194                    
V  6  -7207.229491  22828.068687  16802.301735     -0.085401                    
P  7  -4781.403142  25703.594458   3111.865940   -236.162400                    
V  7  -4265.580641   2620.199839 -31576.010462     -0.084993                    
P  8 -18529.814394    384.962523  19142.694284    -27.155982                    
V  8 -16654.976415 -17516.408451 -15542.123957     -0.013296                    
P  9   -208.039861  18559.304562 -19046.962374   -176.891384                    
V  9 -18399.203161 -15637.463713 -15095.076324     -0.081518                    
P 10  -7935.135898 -13364.441749  21644.849457   -277.894507                    
V 10  26185.311613  -7531.099986   4740.616453     -0.125774                    
P 11 -14187.849559   8701.921961  20251.092233   -333.515130                    
V 11  -6351.506102 -26242.005137   6368.286735      0.107982                    
P 12  22746.802362 -10531.833413  -8749.955770    140.508469                    
V 12  11023.761849    -17.651968  29624.847494     -0.042279                    
P 13  19980.823195   8573.542606  15190.798113     -5.640894                    
V 13  10543.937174  16454.938566 -22889.087135      0.028774                    
P 14 -18640.141913 -18826.969564  -2645.741113    -26.196280                    
V 14   -423.161939  -4584.674243  31400.943827      0.025054                    
P 15  18581.007425  -2894.596069  18585.688157   -244.853860                    
V 15  17818.534849  16510.209066 -14615.257152      0.026282                    
P 16 -25270.096140  -1576.279258  -8969.623093   -135.236261                    
V 16  10472.260058  -3548.182175 -29141.638408     -0.042740                    
P 17  13346.549721  21962.663388   7225.168230    232.345569                    
V 17  -7112.060158  -5133.443636  30487.444255      0.063244                    
P 18  10032.546300 -24231.491613  -4167.547292     65.001450                    
V 18   1147.656932   5839.037057 -31219.249613      4.514390                    
P 19  17699.738395  19754.815756  -1684.111617   -185.539941                    
V 19   -504.440428   2710.633669  32135.081260      0.051357                    
P 20   3834.413031 -17354.666147  19593.240814    527.870432                    
V 20  23859.226507  -8325.058345 -12202.846142     -0.000142                    
P 21   1769.619968 -26365.445716   4596.580733    -27.575998                    
V 21   3598.048840  -4220.170748 -30691.905182      0.051891                    
P 22 -24456.003710  10050.703763  -1419.906306   -785.450051                    
V 22  -3292.210160  -2955.960069  31064.260765     -0.000443                    
P 23 -10070.613583  11670.013031 -21257.348054   -129.570063                    
V 23 -20488.439347 -18983.692891  -1076.772848      0.027087                    
P 24  14259.974576 -16617.998150  14578.961020    -10.383376                    
V 24   -891.444553  19261.078841  22889.420811     -0.005052                    
P 25  13051.048715 -15733.383455 -17040.390648     -8.936108                    
V 25  21003.700204  -3870.172778  20201.982880      0.019174                    
P 26 -19442.002439  -6754.012554 -16939.055022    167.910288                    
V 26  19903.222080  -8088.025615 -19434.457100      0.075478                    
P 27 -21618.773008 -10121.137694  11869.013510   -238.980742                    
V 27  -9572.531137 -11827.034983 -26899.560806     -0.107609                    
P 28   8102.310155  13556.532326  21921.943280    732.741642                    
V 28 -25944.386428   5037.884123   6792.507682     -0.027016                    
P 29   2773.966818 -17069.742840 -20189.323064    -56.953510                    
V 29  17478.935659  18576.861219 -13344.975109     -0.092793                    
P 30   2995.528352  22916.757595  12935.972556   -175.799865                    
V 30  -7571.767379  14960.841836 -25012.280678     -0.087174                    
P 31 -10577.214452 -13847.476116 -19951.967674    -29.536311                    
V 31   8425.053213 -23993.231698  12662.826473     -0.024552                    
P 32 -15278.093934 -20955.415663   6149.629753    236.604570                    
V 32   7380.374630   3446.301247  30293.319283      0.091309                    
EOF
